[{"OBJECT_NAME":"HULIANWANG DIGUI-140","OBJECT_ID":"2026-007D","EPOCH":"2026-03-03T07:34:49.743264","MEAN_MOTION":13.43527489,"ECCENTRICITY":6.137e-5,"INCLINATION":50.0067,"RA_OF_ASC_NODE":106.2628,"ARG_OF_PERICENTER":210.9739,"MEAN_ANOMALY":149.1103,"EPHEMERIS_TYPE":0,"CLASSIFICATION_TYPE":"U","NORAD_CAT_ID":67438,"ELEMENT_SET_NO":999,"REV_AT_EPOCH":669,"BSTAR":0.00019474182,"MEAN_MOTION_DOT":-1.7e-7,"MEAN_MOTION_DDOT":0},{"OBJECT_NAME":"NIMBUS 2 DEB","OBJECT_ID":"1966-040AR","EPOCH":"2026-03-08T21:55:28.298208","MEAN_MOTION":13.50387801,"ECCENTRICITY":0.00474388,"INCLINATION":100.505,"RA_OF_ASC_NODE":43.3258,"ARG_OF_PERICENTER":27.0197,"MEAN_ANOMALY":31.4249,"EPHEMERIS_TYPE":0,"CLASSIFICATION_TYPE":"U","NORAD_CAT_ID":31579,"ELEMENT_SET_NO":999,"REV_AT_EPOCH":92282,"BSTAR":0.0040635785,"MEAN_MOTION_DOT":2.57e-5,"MEAN_MOTION_DDOT":0}]
